{
  "info": {
    "author": "Adithya Venkateswaran",
    "author_email": "adithyav1511@gmail.com",
    "bugtrack_url": null,
    "classifiers": [
      "Development Status :: 2 - Pre-Alpha",
      "Intended Audience :: Developers",
      "License :: OSI Approved :: GNU Lesser General Public License v3 (LGPLv3)",
      "Programming Language :: Python :: 3"
    ],
    "description": "# vinvelivaanilai\n\n[![pipeline status](https://gitlab.com/librespacefoundation/polaris/vinvelivaanilai/badges/master/pipeline.svg)](https://gitlab.com/librespacefoundation/polaris/vinvelivaanilai/commits/master)\n[![coverage report](https://gitlab.com/librespacefoundation/polaris/vinvelivaanilai/badges/master/coverage.svg)](https://gitlab.com/librespacefoundation/polaris/vinvelivaanilai/commits/master)\n\nVinveli - Space, Vaanilai - Weather (in Tamil)\n\nThis project collects space weather data from ftp.swpc.noaa.gov for your use\n\nCurrently the project supports the following indices for a complete year/quarter:\n\n* DGD (Daily Geomagnetic Data)\n* DSD (Daily Solar Data)\n* DPD (Daily Particle Data)\n\nAll of the above are daily indices and are accessible at <ftp://ftp.swpc.noaa.gov/pub/indices/old_indices/>.\n\nIt also supports strorage and propagation of TLEs, OMMs which are fetched from\n<https://celestrak.com/>.\n\nWe went with celestrak because their license permits storage, modification and\nredistribution of the data (permissive) as against Space-Track who have a\nnon-permissive license (which would make this project illegal).\n\nFeel free to [read this blog](https://libre.space/2020/03/02/space-situational-awareness/)\nby LSF to learn more.\n\nThe project structure is like so:\n\n``` bash\nvinvelivaanilai\n├── orbit\n│   ├── predict_orbit.py (uses TLEs/OMMs to predict/propagate orbit)\n│   └── tle_fetch.py (fetches TLEs from celestrak)\n├── space_weather\n│   ├── sw_extractor.py (extracts space-weather data from SWPC files)\n│   └── sw_file_fetch.py (fetches files with the indices from SWPC)\n└── storage\n    ├── idb_config.py (configuration of influxdb)\n    ├── retrieve.py (retrieves data from influxdb)\n    ├── store.py (pushes data to influxdb)\n    └── docker-compose.yml (fire up influxdb)\n```\n\n## Installation\n\nYou can install vinvelivaanilai using pip\n\n``` BASH\npip install vinvelivaanilai\n```\n\nIt is recommended that you install the project in a virtual environment as it\nis still under development.\n\nTo create a virtual environment and install in it, run:\n\n``` BASH\npython -m venv .venv\nsource .venv/bin/activate\npythom -m pip install vinvelivaanilai\n```\n\nTo install an editable version of the master branch:\n\n``` BASH\ngit clone https://gitlab.com/librespacefoundation/polaris/vinvelivaanilai.git\ncd vinvelivaanilai\npip install -e .\n```\n\n## Usage\n\nFor fetching indices from SWPC\n\n``` BASH\n(.venv) $ python\n\n>>> from vinvelivaanilai.space_weather.sw_file_fetch import fetch_indices\n\n>>> from vinvelivaanilai.space_weather.sw_extractor import extract_data_regex\n\n>>> import datetime\n\n>>> start_date = datetime.datetime(year=2018, month=1, day=30)\n\n>>> final_date = datetime.datetime(year=2019, month=2, day=28)\n\n>>> fetch_indices(\"DGD\", start_date, final_date)\n\n>>> df = extract_data_regex(\"DGD\", \"2018_DGD.txt\")\n\n>>> df\n            Fredericksburg A  Fredericksburg K 0-3  Fredericksburg K 3-6  ...  Planetary K 15-18  Planetary K 18-21  Planetary K 21-24\nDate                                                                      ...\n2018-01-01                 8                     3                     3  ...                  1                  1                  1\n2018-01-02                 4                     1                     1  ...                  1                  2                  1\n2018-01-03                 3                     0                     1  ...                  1                  1                  1\n2018-01-04                 3                     1                     0  ...                  0                  2                  1\n2018-01-05                 5                     1                     2  ...                  1                  1                  2\n...                      ...                   ...                   ...  ...                ...                ...                ...\n2018-12-27                 5                     2                     2  ...                  1                  1                  3\n2018-12-28                19                     4                     4  ...                  3                  4                  3\n2018-12-29                 9                     2                     2  ...                  2                  2                  2\n2018-12-30                 7                     1                     3  ...                  3                  2                  2\n2018-12-31                 7                     3                     2  ...                  1                  0                  1\n\n[365 rows x 27 columns]\n```\n\nFor using influxdb, you need to start the docker-container using the\ndocker-compose file in storage\n\n``` Python\n$ cd vinvelivaanilai/storage\n\n$ docker-compose up -d\nCreating network \"storage_default\" with the default driver\nCreating storage_influxdb_beta_1 ... done\n```\n\nFor fetching TLEs/OMMs from celestrak and propagating orbits\n\n``` BASH\n(.venv) $ python\n\n>>> from vinvelivaanilai.orbit import tle_fetch, predict_orbit\n\n>>> from datetime import datetime, timedelta\n\n# Both stores data and serves df\n>>> omms = tle_fetch.fetch_latest_omm_from_celestrak(\"/tmp/cubesats.csv\", \"cubesat\", \"w\")\n\n>>> omms\n                                         OBJECT_NAME  OBJECT_ID  MEAN_MOTION  ECCENTRICITY  ...  REV_AT_EPOCH     BSTAR  MEAN_MOTION_DOT  MEAN_MOTION_DDOT\nEPOCH                                                                                       ...\n2020-07-02 20:09:35.571520            CUTE-1 (CO-55)  2003-031E    14.222448      0.001022  ...         88228  0.000035     3.400000e-07                 0\n2020-07-03 00:17:05.416000     CUBESAT XI-IV (CO-57)  2003-031J    14.218309      0.001031  ...         88218  0.000032     2.800000e-07                 0\n2020-07-02 20:43:32.275264              CUBESAT XI-V  2005-043F    14.637798      0.001577  ...         78286  0.000024     7.700000e-07                 0\n2020-07-02 19:03:35.927776   CUTE-1.7+APD II (CO-65)  2008-021C    14.884828      0.001464  ...         66022  0.000020     1.340000e-06                 0\n2020-07-02 17:06:36.440128                 AAUSAT-II  2008-021F    14.950825      0.001206  ...         66169  0.000025     2.140000e-06                 0\n...                                              ...        ...          ...           ...  ...           ...       ...              ...               ...\n2020-07-02 14:26:08.321344                     ATL-1  2019-084G    15.799381      0.002551  ...          3284  0.000265     4.997300e-04                 0\n2020-07-02 21:36:40.737664                    SMOG-P  2019-084J    15.815692      0.002411  ...          3290  0.000278     5.654500e-04                 0\n2020-07-03 05:09:12.485440                DUCHIFAT-3  2019-089C    14.990769      0.000771  ...          3066  0.000020     1.690000e-06                 0\n2020-07-02 12:57:28.828000  ORBITAL FACTORY 2 (OF-2)  2019-071C    15.333989      0.001350  ...          2344  0.000035     7.820000e-06                 0\n2020-07-03 00:59:05.703136             M2 PATHFINDER  2020-037E    14.911992      0.001170  ...            34 -0.000007    -1.220000e-06                 0\n\n[178 rows x 16 columns]\n\n>>> epoch_time = datetime(year=2020, month=6, day=27, hour=11)\n\n# We are resetting the index because we need the column EPOCH to be present\n# while propagating orbit. Both r and v have units. You can remove the unit by using .value\n>>> predict_orbit.get_position_velocity_from_omm(epoch_time, omms.reset_index())\n{\n   't': datetime.datetime(2020, 6, 27, 11, 0),\n   'r': <Quantity [6759.32081709, 1754.29279972, 1761.88153199] km>,\n   'v': <Quantity [ 2.0339923 , -0.66798429, -7.12138608] km / s>\n}\n\n>>> from vinvelivaanilai.storage import store, retrieve\n\n>>> omms_old = tle_fetch.fetch_from_celestrak_csv(\"/tmp/cubesats.csv\")\n\n>>> measurement_name = \"cubesats\"\n\n>>> bucket_name = \"cubesat_omms\"\n\n>>> store.dump_to_influxdb(omms_old, measurement_name, bucket_name)\n\n>>> start_date = datetime.now() - timedelta(days=1)\n\n>>> final_date = datetime.now()\n\n>>> retrieve.fetch_from_influxdb(start_date, end_date, measurement_name, bucket_name)\n                                  ARG_OF_PERICENTER     BSTAR CLASSIFICATION_TYPE  ...            OBJECT_NAME RA_OF_ASC_NODE REV_AT_EPOCH\nEPOCH                                                                              ...\n2020-07-03 05:28:10.223104+00:00            60.3184  0.000013                   U  ...  BRITE-PL2 (HEWELIUSZ)       277.2914        31812\n2020-07-03 05:17:42.263584+00:00            52.7698  0.000015                   U  ...          NEE-01 PEGASO       283.9268        38801\n2020-07-03 05:09:12.485440+00:00           202.4634  0.000020                   U  ...             DUCHIFAT-3         5.2116         3066\n2020-07-03 04:55:49.973728+00:00           158.2870  0.000046                   U  ...              E-ST@R-II       296.0163        22981\n2020-07-03 04:50:30.544288+00:00            21.5291  0.000070                   U  ...                KRAKSAT       258.5997         5693\n...                                             ...       ...                 ...  ...                    ...            ...          ...\n2020-07-02 21:30:20.461888+00:00             7.8141  0.000094                   U  ...             SPACEBEE-1       259.2951        13757\n2020-07-02 21:27:51.441760+00:00            68.1632  0.000019                   U  ...            AEROCUBE 5C        97.1618         4358\n2020-07-02 21:23:07.163296+00:00           358.6217  0.000072                   U  ...                 MIRATA        96.5183        14150\n2020-07-02 21:19:51.643552+00:00           265.9139  0.000039                   U  ...        NAYIF-1 (EO-88)       252.2250        18790\n2020-07-02 21:19:31.777600+00:00            73.6534  0.000026                   U  ...                LUCKY-7       146.0457         5490\n\n[85 rows x 16 columns]\n```\n\nTo know more about any vinvelivaanilai module, use the default python\nhelp function and call the module.\n\n## Credits\n\nA big shout-out to the following projects:\n\n* celestrak <https://celestrak.com/>\n* poliastro <https://github.com/poliastro/poliastro>\n* orbit-predictor <https://github.com/satellogic/orbit-predictor>\n* SWPC <https://www.swpc.noaa.gov/>\n\nand the following people for guiding me:\n\n* Hugh (@SaintAardvark)\n* Red (@redsharpbyte)\n* Xabi (@crespum)\n* Patrick (@DL4PD)\n* Juan Luis (@astrojuanlu)\n\n## Work in progress\n\n* ~~pip installation support~~\n* ~~TLE extraction and orbit propogation~~\n* GEOA data extraction\n* SPE (Space Proton Event) data extraction (*)\n\n(*) Some proton events are already covered in DPD data.\n\n\n",
    "description_content_type": "text/markdown",
    "docs_url": null,
    "download_url": "",
    "downloads": {
      "last_day": -1,
      "last_month": -1,
      "last_week": -1
    },
    "home_page": "https://gitlab.com/adithyav1511/vinvelivaanilai",
    "keywords": "space weather, indices",
    "license": "LGPLv3",
    "maintainer": "",
    "maintainer_email": "",
    "name": "vinvelivaanilai",
    "package_url": "https://pypi.org/project/vinvelivaanilai/",
    "platform": "",
    "project_url": "https://pypi.org/project/vinvelivaanilai/",
    "project_urls": {
      "Homepage": "https://gitlab.com/adithyav1511/vinvelivaanilai"
    },
    "release_url": "https://pypi.org/project/vinvelivaanilai/1.0.7/",
    "requires_dist": [
      "numpy (>=1.18.4)",
      "pandas (>=1.0.4)",
      "influxdb-client (>=1.7.0)",
      "astropy (>=4.0.1.post1)",
      "poliastro (>=0.15.0)",
      "orbit-predictor (>=1.12.0)",
      "requests (>=2.23.0)",
      "sphinx (>=3.1.1)",
      "sphinx-autoapi (>=1.4.0)",
      "sphinx-rtd-theme (>=0.5.0)"
    ],
    "requires_python": ">=3",
    "summary": "Vinvelivaanilai",
    "version": "1.0.7",
    "yanked": false,
    "yanked_reason": null
  },
  "last_serial": 10882282,
  "releases": {
    "0.0.1": [
      {
        "comment_text": "",
        "digests": {
          "blake2b_256": "fc845400c4d615110af48ba23232991556cdbfd64c5d60faa6c59bfef9647bdc",
          "md5": "ae759ecc5e11f6fe1a0f81f3852d4d2f",
          "sha256": "358a8b944e7f3eaac163eb5c38e08e09415bc03ca8b8fea3f375b7df8bc1796b"
        },
        "downloads": -1,
        "filename": "vinvelivaanilai-0.0.1-py2.py3-none-any.whl",
        "has_sig": false,
        "md5_digest": "ae759ecc5e11f6fe1a0f81f3852d4d2f",
        "packagetype": "bdist_wheel",
        "python_version": "py2.py3",
        "requires_python": ">= 3",
        "size": 6617,
        "upload_time": "2020-05-07T09:27:12",
        "upload_time_iso_8601": "2020-05-07T09:27:12.520280Z",
        "url": "https://files.pythonhosted.org/packages/fc/84/5400c4d615110af48ba23232991556cdbfd64c5d60faa6c59bfef9647bdc/vinvelivaanilai-0.0.1-py2.py3-none-any.whl",
        "yanked": false,
        "yanked_reason": null
      }
    ],
    "0.0.2": [
      {
        "comment_text": "",
        "digests": {
          "blake2b_256": "55cc31182d68a063da7b23bf73026ebb3f15eaa3d2de9704d1c808c2e120ec62",
          "md5": "f39c3f8c406edae6ef3d0316d7d44da0",
          "sha256": "fd8f3354691fe4b68093a50a53d2f269efdfc36f30cf7bca5e143da3bf5ca6d2"
        },
        "downloads": -1,
        "filename": "vinvelivaanilai-0.0.2-py2.py3-none-any.whl",
        "has_sig": false,
        "md5_digest": "f39c3f8c406edae6ef3d0316d7d44da0",
        "packagetype": "bdist_wheel",
        "python_version": "py2.py3",
        "requires_python": ">= 3",
        "size": 6893,
        "upload_time": "2020-05-12T16:13:45",
        "upload_time_iso_8601": "2020-05-12T16:13:45.061103Z",
        "url": "https://files.pythonhosted.org/packages/55/cc/31182d68a063da7b23bf73026ebb3f15eaa3d2de9704d1c808c2e120ec62/vinvelivaanilai-0.0.2-py2.py3-none-any.whl",
        "yanked": false,
        "yanked_reason": null
      }
    ],
    "1.0.0": [
      {
        "comment_text": "",
        "digests": {
          "blake2b_256": "c4ed1eee1a3fe1af2ef3f4ca17900ab368261f6f73d8804b1a3d6ea921aef6a7",
          "md5": "06dbe7463064539503935481676cb488",
          "sha256": "e998d3d9dbced881483bdc605572d8a5c7a0f301189ecdfade267860bd75e182"
        },
        "downloads": -1,
        "filename": "vinvelivaanilai-1.0.0-py2.py3-none-any.whl",
        "has_sig": false,
        "md5_digest": "06dbe7463064539503935481676cb488",
        "packagetype": "bdist_wheel",
        "python_version": "py2.py3",
        "requires_python": ">=3",
        "size": 26681,
        "upload_time": "2020-08-04T13:07:44",
        "upload_time_iso_8601": "2020-08-04T13:07:44.458863Z",
        "url": "https://files.pythonhosted.org/packages/c4/ed/1eee1a3fe1af2ef3f4ca17900ab368261f6f73d8804b1a3d6ea921aef6a7/vinvelivaanilai-1.0.0-py2.py3-none-any.whl",
        "yanked": false,
        "yanked_reason": null
      }
    ],
    "1.0.1": [
      {
        "comment_text": "",
        "digests": {
          "blake2b_256": "14dab48bb26156934c2bbe5c443c27747f48c4a495fd75d6497793ff45d7d08f",
          "md5": "eff3f7f978e3af7c6cc6a477ce7f661b",
          "sha256": "046a74b3e3461514127a531ce6dc7ec1d1a3e19be3a0729e6f51bedcca5d2be7"
        },
        "downloads": -1,
        "filename": "vinvelivaanilai-1.0.1-py2.py3-none-any.whl",
        "has_sig": false,
        "md5_digest": "eff3f7f978e3af7c6cc6a477ce7f661b",
        "packagetype": "bdist_wheel",
        "python_version": "py2.py3",
        "requires_python": ">=3",
        "size": 26667,
        "upload_time": "2020-08-05T11:17:41",
        "upload_time_iso_8601": "2020-08-05T11:17:41.528685Z",
        "url": "https://files.pythonhosted.org/packages/14/da/b48bb26156934c2bbe5c443c27747f48c4a495fd75d6497793ff45d7d08f/vinvelivaanilai-1.0.1-py2.py3-none-any.whl",
        "yanked": false,
        "yanked_reason": null
      }
    ],
    "1.0.2": [
      {
        "comment_text": "",
        "digests": {
          "blake2b_256": "7da894b8c11b5833fcc4e0f7a10062cd437099e8b9a59a9e579c58d5cc238a4c",
          "md5": "20ea54253d5ddf3d9cf474de20331d72",
          "sha256": "0c03e2fe7f74301fa415939b1498b27db425d4d924dc899fb7b1cd9176e0cdcf"
        },
        "downloads": -1,
        "filename": "vinvelivaanilai-1.0.2-py2.py3-none-any.whl",
        "has_sig": false,
        "md5_digest": "20ea54253d5ddf3d9cf474de20331d72",
        "packagetype": "bdist_wheel",
        "python_version": "py2.py3",
        "requires_python": ">=3",
        "size": 26663,
        "upload_time": "2020-08-23T15:52:07",
        "upload_time_iso_8601": "2020-08-23T15:52:07.841234Z",
        "url": "https://files.pythonhosted.org/packages/7d/a8/94b8c11b5833fcc4e0f7a10062cd437099e8b9a59a9e579c58d5cc238a4c/vinvelivaanilai-1.0.2-py2.py3-none-any.whl",
        "yanked": false,
        "yanked_reason": null
      }
    ],
    "1.0.3": [
      {
        "comment_text": "",
        "digests": {
          "blake2b_256": "693206fe0c9e8c78f7b51a8f6a6aa1430ad1a12b719896b4047d6ff8e19f205b",
          "md5": "f3a90fa3f5cea9cd8a0581df91f79389",
          "sha256": "7065e58f492e37b53af63dd63f3c3638beb79a7b7544d127df8693b9171f0b6f"
        },
        "downloads": -1,
        "filename": "vinvelivaanilai-1.0.3-py2.py3-none-any.whl",
        "has_sig": false,
        "md5_digest": "f3a90fa3f5cea9cd8a0581df91f79389",
        "packagetype": "bdist_wheel",
        "python_version": "py2.py3",
        "requires_python": ">=3",
        "size": 26719,
        "upload_time": "2021-03-11T09:26:34",
        "upload_time_iso_8601": "2021-03-11T09:26:34.197749Z",
        "url": "https://files.pythonhosted.org/packages/69/32/06fe0c9e8c78f7b51a8f6a6aa1430ad1a12b719896b4047d6ff8e19f205b/vinvelivaanilai-1.0.3-py2.py3-none-any.whl",
        "yanked": false,
        "yanked_reason": null
      }
    ],
    "1.0.5": [
      {
        "comment_text": "",
        "digests": {
          "blake2b_256": "47923a10be66f748b22f6081290a6630e616c47f66f9fdc0711c99a9bbb3638b",
          "md5": "f357599002f552cda44d22781c932738",
          "sha256": "2150f40e881672e431ee18af5fc9a404c1e3e00d16807683dfa2838bf1f79390"
        },
        "downloads": -1,
        "filename": "vinvelivaanilai-1.0.5-py2.py3-none-any.whl",
        "has_sig": false,
        "md5_digest": "f357599002f552cda44d22781c932738",
        "packagetype": "bdist_wheel",
        "python_version": "py2.py3",
        "requires_python": ">=3",
        "size": 30532,
        "upload_time": "2021-05-13T15:39:36",
        "upload_time_iso_8601": "2021-05-13T15:39:36.040475Z",
        "url": "https://files.pythonhosted.org/packages/47/92/3a10be66f748b22f6081290a6630e616c47f66f9fdc0711c99a9bbb3638b/vinvelivaanilai-1.0.5-py2.py3-none-any.whl",
        "yanked": false,
        "yanked_reason": null
      }
    ],
    "1.0.6": [
      {
        "comment_text": "",
        "digests": {
          "blake2b_256": "4c7e69234d40d12bfb445f8acf4c44bc21e3a82ce79496ee45ea9902d1104bc8",
          "md5": "99ab0380eb7614ff1abee709f5371bdd",
          "sha256": "8ca7d2ba75f0c5273b85c2922590ba920278df89d673fda9630f1a11590b848c"
        },
        "downloads": -1,
        "filename": "vinvelivaanilai-1.0.6-py2.py3-none-any.whl",
        "has_sig": false,
        "md5_digest": "99ab0380eb7614ff1abee709f5371bdd",
        "packagetype": "bdist_wheel",
        "python_version": "py2.py3",
        "requires_python": ">=3",
        "size": 30550,
        "upload_time": "2021-05-30T16:28:26",
        "upload_time_iso_8601": "2021-05-30T16:28:26.087813Z",
        "url": "https://files.pythonhosted.org/packages/4c/7e/69234d40d12bfb445f8acf4c44bc21e3a82ce79496ee45ea9902d1104bc8/vinvelivaanilai-1.0.6-py2.py3-none-any.whl",
        "yanked": false,
        "yanked_reason": null
      }
    ],
    "1.0.7": [
      {
        "comment_text": "",
        "digests": {
          "blake2b_256": "6a7b118eb5fc1a9b871e261d8c16ab1eb96cbb9161877a172c39a528add1a891",
          "md5": "e592c6f28210be68c53511996548f734",
          "sha256": "c19b26ab4c726f0ab61055d79e5374d3a4a96ceeccd9aa1606fc1a7c4ee31bea"
        },
        "downloads": -1,
        "filename": "vinvelivaanilai-1.0.7-py2.py3-none-any.whl",
        "has_sig": false,
        "md5_digest": "e592c6f28210be68c53511996548f734",
        "packagetype": "bdist_wheel",
        "python_version": "py2.py3",
        "requires_python": ">=3",
        "size": 30552,
        "upload_time": "2021-07-12T06:22:32",
        "upload_time_iso_8601": "2021-07-12T06:22:32.414199Z",
        "url": "https://files.pythonhosted.org/packages/6a/7b/118eb5fc1a9b871e261d8c16ab1eb96cbb9161877a172c39a528add1a891/vinvelivaanilai-1.0.7-py2.py3-none-any.whl",
        "yanked": false,
        "yanked_reason": null
      }
    ]
  },
  "urls": [
    {
      "comment_text": "",
      "digests": {
        "blake2b_256": "6a7b118eb5fc1a9b871e261d8c16ab1eb96cbb9161877a172c39a528add1a891",
        "md5": "e592c6f28210be68c53511996548f734",
        "sha256": "c19b26ab4c726f0ab61055d79e5374d3a4a96ceeccd9aa1606fc1a7c4ee31bea"
      },
      "downloads": -1,
      "filename": "vinvelivaanilai-1.0.7-py2.py3-none-any.whl",
      "has_sig": false,
      "md5_digest": "e592c6f28210be68c53511996548f734",
      "packagetype": "bdist_wheel",
      "python_version": "py2.py3",
      "requires_python": ">=3",
      "size": 30552,
      "upload_time": "2021-07-12T06:22:32",
      "upload_time_iso_8601": "2021-07-12T06:22:32.414199Z",
      "url": "https://files.pythonhosted.org/packages/6a/7b/118eb5fc1a9b871e261d8c16ab1eb96cbb9161877a172c39a528add1a891/vinvelivaanilai-1.0.7-py2.py3-none-any.whl",
      "yanked": false,
      "yanked_reason": null
    }
  ],
  "vulnerabilities": []
}